STARLINK-32791          
1 62530U 25004V   26068.45526885  .00026424  00000+0  96689-3 0  9990
2 62530  43.0014 221.1126 0001890 265.4901  94.5734 15.27560353 66427
JINJUSAT-1B             
1 63210U 25052A   26068.66363707  .00019955  00000+0  68430-3 0  9998
2 63210  97.4113 325.4613 0005550  82.1930 277.9941 15.30194857 54866
